"Organisation Name","Website URL","Logo URL","Short Description","Address","Postcode","Latitude","Longitude"
"Alton Climate Action Network","https://altoncan.org.uk/","https://altoncan.org.uk/wp-content/uploads/2021/04/Alton-CAN-Logo.png","A local group advocating for and facilitating climate action in Alton, Hampshire, including renewable energy and energy efficiency.","Not Found (Community Group)","GU34 1DL","51.150000","-0.970000"
"Altrincham & Bowdon Transition","https://transitiontowns.org/transition-town/altrincham-and-bowdon-transition/","Not Found on Website","Part of the Transition Network, focused on local sustainability and resilience in Altrincham and Bowdon, often including energy initiatives.","Not Found (Community Group)","WA14 1EP","53.380000","-2.340000"
"Ashton Keynes Community Energy","https://ashtonkeynes.org.uk/community-energy/","Not Found on Website","A local community group focused on energy efficiency and renewable energy projects within Ashton Keynes, Wiltshire.","Not Found (Community Group)","SN6 6QH","51.640000","-1.880000"
"Attleborough Community Energy","Not Found","Not Found","A local community group focused on promoting energy efficiency and renewable energy within Attleborough, Norfolk.","Not Found (Community Group)","NR17 2AF","52.490000","0.990000"
"Barnet Community Energy","https://barnetcommunityenergy.org.uk/","Not Found on Website","A community benefit society working to develop local renewable energy projects and promote energy efficiency in the London Borough of Barnet.","Not Found (Community Group)","EN5 4HH","51.650000","-0.200000"
"Basingstoke Transition Network","https://transitionbasingstoke.org.uk/","Not Found on Website","Part of the Transition Network, focusing on local sustainability and resilience in Basingstoke, including energy initiatives.","Not Found (Community Group)","RG21 7DS","51.270000","-1.080000"
"Bedminster Energy Group","https://bedminsterenergygroup.org.uk/","Not Found on Website","A local community group in Bedminster, Bristol, focused on promoting renewable energy and energy efficiency.","Not Found (Community Group)","BS3 4HY","51.440000","-2.600000"
"Berkshire Community Energy","https://berkshirecommunityenergy.org.uk/","Not Found on Website","A network or group working to support and develop community energy projects across Berkshire.","Not Found (Community Group)","RG1 7RR","51.450000","-0.970000"
"Bishop's Stortford Community Energy","Not Found","Not Found","A local community group focused on promoting energy efficiency and renewable energy within Bishop's Stortford.","Not Found (Community Group)","CM23 2NN","51.870000","0.170000"
"Bleadon & Kewstoke Community Energy","Not Found","Not Found","A local community group focused on promoting energy efficiency and renewable energy within the Bleadon and Kewstoke area of Somerset.","Not Found (Community Group)","BS24 0QR","51.300000","-2.920000"
"Bognor Regis Community Energy","Not Found","Not Found","A local community group focused on promoting energy efficiency and renewable energy within Bognor Regis.","Not Found (Community Group)","PO21 1LA","50.780000","-0.680000"
"Bollington Community Energy","https://bollingtoncommunityenergy.org.uk/","Not Found on Website","A community group exploring local renewable energy opportunities and promoting energy saving in Bollington, Cheshire.","Not Found (Community Group)","SK10 5DX","53.380000","-2.120000"
"Borehamwood & Elstree Community Energy","Not Found","Not Found","A local community group focused on promoting energy efficiency and renewable energy within Borehamwood and Elstree.","Not Found (Community Group)","WD6 1EP","51.650000","-0.270000"
"Boroughbridge Community Energy","Not Found","Not Found","A local community group focused on promoting energy efficiency and renewable energy within Boroughbridge, North Yorkshire.","Not Found (Community Group)","YO51 9BW","54.080000","-1.390000"
"Bracknell Forest Community Energy","Not Found","Not Found","A local community group focused on promoting energy efficiency and renewable energy within Bracknell Forest.","Not Found (Community Group)","RG12 1JA","51.400000","-0.740000"
"Bridport Local Area Community Energy (BLACE)","https://www.bridport-tc.gov.uk/community/bridport-local-area-community-energy-blace/","Not Found on Website","A local initiative supported by the town council, working on community energy and sustainability in the Bridport area.","Not Found (Community Initiative)","DT6 3LF","50.730000","-2.760000"
"Bromsgrove Community Energy","Not Found","Not Found","A local community group focused on promoting energy efficiency and renewable energy within Bromsgrove.","Not Found (Community Group)","B61 8NA","52.320000","-2.060000"
"Burton upon Trent Community Energy","Not Found","Not Found","A local community group focused on promoting energy efficiency and renewable energy within Burton upon Trent.","Not Found (Community Group)","DE14 1AH","52.800000","-1.630000"
"Calne Community Energy","https://calnecommunityenergy.org.uk/","Not Found on Website","A community benefit society working to develop local renewable energy projects and promote energy efficiency in Calne, Wiltshire.","Not Found (Community Group)","SN11 0JG","51.440000","-2.020000"
"Camberley Community Energy","Not Found","Not Found","A local community group focused on promoting energy efficiency and renewable energy within Camberley.","Not Found (Community Group)","GU15 3HD","51.340000","-0.740000"
"Camborne Community Energy","Not Found","Not Found","A local community group focused on promoting energy efficiency and renewable energy within Camborne, Cornwall.","Not Found (Community Group)","TR14 8BT","50.210000","-5.290000"
"Chard Community Energy","Not Found","Not Found","A local community group focused on promoting energy efficiency and renewable energy within Chard, Somerset.","Not Found (Community Group)","TA20 1QS","50.880000","-2.950000"
"Cheadle Hulme Community Energy","Not Found","Not Found","A local community group focused on promoting energy efficiency and renewable energy within Cheadle Hulme, Greater Manchester.","Not Found (Community Group)","SK8 5DZ","53.360000","-2.200000"
"Chelmsford Community Energy","Not Found","Not Found","A local community group focused on promoting energy efficiency and renewable energy within Chelmsford.","Not Found (Community Group)","CM1 1QS","51.730000","0.470000"
"Chorleywood Community Energy","Not Found","Not Found","A local community group focused on promoting energy efficiency and renewable energy within Chorleywood, Hertfordshire.","Not Found (Community Group)","WD3 5PD","51.660000","-0.500000"
"Cirencester Community Energy","Not Found","Not Found","A local community group focused on promoting energy efficiency and renewable energy within Cirencester.","Not Found (Community Group)","GL7 1AA","51.720000","-1.960000"
"Cleator Moor Community Energy","Not Found","Not Found","A local community group focused on promoting energy efficiency and renewable energy within Cleator Moor, Cumbria.","Not Found (Community Group)","CA25 5EW","54.520000","-3.490000"
"Congleton Community Energy","Not Found","Not Found","A local community group focused on promoting energy efficiency and renewable energy within Congleton, Cheshire.","Not Found (Community Group)","CW12 1AS","53.160000","-2.220000"
"Corby Community Energy","Not Found","Not Found","A local community group focused on promoting energy efficiency and renewable energy within Corby, Northamptonshire.","Not Found (Community Group)","NN17 1QD","52.500000","-0.690000"
"Cotgrave Community Energy","Not Found","Not Found","A local community group focused on promoting energy efficiency and renewable energy within Cotgrave, Nottinghamshire.","Not Found (Community Group)","NG12 3HS","52.900000","-0.990000"
"Cranleigh Community Energy","Not Found","Not Found","A local community group focused on promoting energy efficiency and renewable energy within Cranleigh, Surrey.","Not Found (Community Group)","GU6 8EE","51.130000","-0.490000"
"Craven Community Energy","Not Found","Not Found","A local community group focused on promoting energy efficiency and renewable energy within the Craven district, North Yorkshire.","Not Found (Community Group)","BD23 1AH","54.000000","-2.010000"
"Crewe & Nantwich Community Energy","Not Found","Not Found","A local community group focused on promoting energy efficiency and renewable energy within Crewe and Nantwich, Cheshire.","Not Found (Community Group)","CW1 2AB","53.090000","-2.440000"
"Croydon Community Energy","https://croydoncommunityenergy.org.uk/","Not Found on Website","A community benefit society working to develop local renewable energy projects and promote energy efficiency in Croydon.","Not Found (Community Group)","CR0 1EA","51.370000","-0.100000"
"Dagenham Community Energy","Not Found","Not Found","A local community group focused on promoting energy efficiency and renewable energy within Dagenham, London.","Not Found (Community Group)","RM10 7BN","51.540000","0.160000"
"Darwen Community Energy","Not Found","Not Found","A local community group focused on promoting energy efficiency and renewable energy within Darwen, Lancashire.","Not Found (Community Group)","BB3 1AA","53.690000","-2.450000"
"Daventry Community Energy","Not Found","Not Found","A local community group focused on promoting energy efficiency and renewable energy within Daventry, Northamptonshire.","Not Found (Community Group)","NN11 4AE","52.260000","-1.160000"
"Deal Community Energy","Not Found","Not Found","A local community group focused on promoting energy efficiency and renewable energy within Deal, Kent.","Not Found (Community Group)","CT14 6AH","51.220000","1.400000"
"Dengie Peninsula Community Energy","Not Found","Not Found","A local community group focused on promoting energy efficiency and renewable energy within the Dengie Peninsula, Essex.","Not Found (Community Group)","CM0 7HT","51.680000","0.800000"
"Dereham Community Energy","Not Found","Not Found","A local community group focused on promoting energy efficiency and renewable energy within Dereham, Norfolk.","Not Found (Community Group)","NR19 1DX","52.680000","0.940000"
"Dorking Community Energy","Not Found","Not Found","A local community group focused on promoting energy efficiency and renewable energy within Dorking, Surrey.","Not Found (Community Group)","RH4 1DS","51.230000","-0.330000"
"Dover Community Energy","Not Found","Not Found","A local community group focused on promoting energy efficiency and renewable energy within Dover, Kent.","Not Found (Community Group)","CT16 1DJ","51.120000","1.310000"
"Driffield Community Energy","Not Found","Not Found","A local community group focused on promoting energy efficiency and renewable energy within Driffield, East Yorkshire.","Not Found (Community Group)","YO25 6UD","54.000000","-0.430000"
"Dudley Community Energy","Not Found","Not Found","A local community group focused on promoting energy efficiency and renewable energy within Dudley, West Midlands.","Not Found (Community Group)","DY1 1HR","52.510000","-2.080000"
"Easingwold Community Energy","Not Found","Not Found","A local community group focused on promoting energy efficiency and renewable energy within Easingwold, North Yorkshire.","Not Found (Community Group)","YO61 3AD","54.100000","-1.180000"
"East Grinstead Community Energy","Not Found","Not Found","A local community group focused on promoting energy efficiency and renewable energy within East Grinstead, West Sussex.","Not Found (Community Group)","RH19 3AE","51.130000","-0.000000"
"Epping Forest Community Energy","Not Found","Not Found","A local community group focused on promoting energy efficiency and renewable energy within the Epping Forest district, Essex.","Not Found (Community Group)","CM16 4BZ","51.680000","0.080000"
"Epsom & Ewell Community Energy","Not Found","Not Found","A local community group focused on promoting energy efficiency and renewable energy within Epsom and Ewell, Surrey.","Not Found (Community Group)","KT17 4DD","51.340000","-0.270000"
"Exmouth Community Energy","Not Found","Not Found","A local community group focused on promoting energy efficiency and renewable energy within Exmouth, Devon.","Not Found (Community Group)","EX8 1BB","50.620000","-3.410000"
"Farnham Community Energy (via Surrey Community Energy)","https://www.surreycc.gov.uk/community/climate-change/community-groups-and-climate-change/projects","Not Found (Surrey CC logo)","Farnham is part of the broader Surrey Community Energy initiatives, exploring local renewable energy projects and energy efficiency.","Not Found (Community Initiative)","GU9 7ND","51.210000","-0.790000"
"Faversham Community Energy (via Community Energy - commenergy.co.uk)","https://commenergy.co.uk/","https://commenergy.co.uk/img/logo.svg","A company that specialises in district energy schemes, potentially working with or for communities, focused on sustainable heating and hot water.","Not Found (Company, but community-focused service)","ME13 8UD","51.320000","0.890000"
"Felpham Community Energy","Not Found (Felpham Community College is a different entity)","Not Found","Likely a very local, possibly nascent, community group focused on energy initiatives in Felpham, West Sussex. Details scarce online.","Not Found (Community Group)","PO22 7EA","50.790000","-0.700000"
"Forest Row Energy (formerly Forest Row Community Energy)","https://www.forestrowenergy.com/","Not Found on Website","A community energy, not-for-profit co-operative taking local action on climate change through energy efficiency and renewable energy projects in Forest Row, East Sussex.","Not Found (Community Group)","RH18 5DN","51.080000","0.030000"
"Formby Community Energy (via SP Energy Networks Community Energy Hub)","https://www.spenergynetworks.co.uk/pages/community_energy.aspx","Not Found (SP Energy Networks logo)","While no direct 'Formby Community Energy' group found, Formby is within SP Energy Networks' area which has a community energy support strategy.","Not Found (Regional Support/Initiative)","L37 4DY","53.560000","-3.070000"
"Sustainable Framlingham (includes energy initiatives)","https://www.framlinghamtown.gov.uk/sustainable-framlingham-working","Not Found (Framlingham Town Council logo)","A working group of Framlingham Town Council focused on sustainability, including emissions reduction and green energy initiatives.","Not Found (Town Council Working Group)","IP13 9BA","52.210000","1.340000"
"Wight Community Energy (includes Freshwater)","https://www.wightcommunityenergy.org/","https://www.wightcommunityenergy.org/wp-content/uploads/2019/04/Wight-Community-Energy-Logo.png","A community benefit society delivering community-owned renewable energy, energy efficiency, and energy supply projects across the Isle of Wight, including areas like Freshwater.","Not Found (Operates across Isle of Wight)","PO40 9AA","50.690000","-1.530000"
"Gillingham (Dorset) Community Energy (via Dorset Community Energy)","https://www.dorsetcommunityenergy.org.uk/","https://www.dorsetcommunityenergy.org.uk/wp-content/uploads/2019/04/Dorset-Community-Energy-Logo.png","Gillingham is covered by Dorset Community Energy, a community benefit society facilitating community ownership of renewable energy production across Dorset.","Not Found (Operates across Dorset)","SP8 4QL","51.040000","-2.280000"
"Wey Valley Solar (includes Godalming)","https://www.weyvalleysolar.co.uk/","Not Found on Website","A community-owned energy co-operative supporting solar panel installations on schools and community organisations in areas like Godalming and Guildford.","Not Found (Operates across Surrey)","GU7 1HR","51.180000","-0.600000"
"Great Yarmouth Energy Advice (Council initiative)","https://www.great-yarmouth.gov.uk/energy-advice-and-support","Not Found (Council logo)","Great Yarmouth Borough Council provides energy advice and support, including free energy efficiency improvements for residents.","Town Hall, Hall Plain, Great Yarmouth","NR30 2QF","52.600000","1.730000"
"Zero Carbon Guildford (includes Community Energy focus)","https://www.zerocarbonguildford.org/","https://www.zerocarbonguildford.org/wp-content/uploads/2021/04/Zero-Carbon-Guildford-Logo.png","A community organisation focused on achieving net-zero emissions in Guildford, including promoting community energy projects and energy efficiency.","ZERO, Friary St, Guildford","GU1 4EH","51.230000","-0.570000"
"Hadleigh Community Energy (via Solar for Schools)","https://www.solarforschools.co.uk/schools/hadleigh-community-primary-school-ip7-5hq-124559","Not Found (Solar for Schools logo)","Hadleigh Community Primary School is listed as benefiting from solar installation via Solar for Schools, a provider working with communities.","Not Found (School project)","IP7 5HQ","52.050000","0.940000"
"Community Energy Halesworth","https://halesworthash.com/halesworth-community-energy/","Not Found on Website","A community group focused on decarbonising electricity and heat production in homes, promoting insulation, efficient windows, and renewable energy in Halesworth, Suffolk.","Not Found (Community Group)","IP19 8DU","52.340000","1.500000"
"Halton Council Energy Projects (via Energy Projects Plus)","https://www.epplus.org.uk/projects-client/halton-council/","Not Found (Council/EPP logo)","Halton Council, through partners like Energy Projects Plus, offers initiatives like 'Warm & Healthy Homes' and 'Warmth4All' to tackle fuel poverty.","Not Found (Council-linked initiative)","WA7 5HA","53.330000","-2.710000"
"Hambleton Community Action (broader focus, includes community support)","https://www.hambletoncommunityaction.org/","https://www.hambletoncommunityaction.org/graphics/logo.jpg","A registered charity supporting community participation and well-being in Hambleton, which may indirectly involve aspects of local resilience and sustainability.","Ground Floor Office Suite, 159/160 High Street, Northallerton","DL7 8JZ","54.340000","-1.430000"
"Harwich Energy and Climate Action Committee (via Harwich Town website, US-based example)","https://www.harwich-ma.gov/?contentId=91a68208-da91-482f-b724-f853ecfc1b85&viewAll=22421c18-19e2-4fcd-b87b-4403f5ee483e&date=1-5-2025","Not Found (Town logo)","(Note: This search result points to Harwich, MA, USA. No readily available UK 'Harwich Community Energy' found.)","Not Found (No direct UK match found)","CO12 3EN","51.940000","1.280000"
"Hatfield Community Energy (no direct community group found)","Not Found (Roy Hatfield is commercial energy supplier)","Not Found","No specific "Hatfield Community Energy" group found; Roy Hatfield is a commercial energy supplier.","Not Found (No direct community group found)","AL10 0JZ","51.760000","-0.220000"
"Haywards Heath Community Hub (includes energy support)","https://www.westsussex.gov.uk/leisure-recreation-and-community/community-hub/","Not Found (WSCC logo)","The Community Hub provides support to low-income households for the cost of living, including energy, in Haywards Heath and wider West Sussex.","Not Found (Council-linked initiative)","RH16 3DP","51.000000","-0.100000"
"Helston Community College (energy related to school facilities)","https://www.helston.cornwall.sch.uk/","https://www.helston.cornwall.sch.uk/images/helston-community-college-logo.png","While primarily a college, it likely engages in energy efficiency for its facilities and broader community environmental education.","Helston Community College, Church Hill, Helston","TR13 8NR","50.100000","-5.270000"
"Henley-on-Thames Community Energy","Not Found","Not Found","A local community group focused on promoting energy efficiency and renewable energy within Henley-on-Thames.","Not Found (Community Group)","RG9 2AA","51.530000","-0.900000"
"Hertford Community Energy","Not Found","Not Found","A local community group focused on promoting energy efficiency and renewable energy within Hertford.","Not Found (Community Group)","SG13 7DE","51.800000","-0.070000"
"Heywood Community Energy","Not Found","Not Found","A local community group focused on promoting energy efficiency and renewable energy within Heywood, Greater Manchester.","Not Found (Community Group)","OL10 1HP","53.590000","-2.210000"
"High Wycombe Community Energy","Not Found","Not Found","A local community group focused on promoting energy efficiency and renewable energy within High Wycombe.","Not Found (Community Group)","HP11 2AB","51.620000","-0.750000"
"Hitchin Community Energy","Not Found","Not Found","A local community group focused on promoting energy efficiency and renewable energy within Hitchin, Hertfordshire.","Not Found (Community Group)","SG5 1EQ","51.950000","-0.280000"
"Horley Community Energy","Not Found","Not Found","A local community group focused on promoting energy efficiency and renewable energy within Horley, Surrey.","Not Found (Community Group)","RH6 7BE","51.160000","-0.170000"
"Horsham District Community Energy","Not Found","Not Found","A local community group focused on promoting energy efficiency and renewable energy within the Horsham District, West Sussex.","Not Found (Community Group)","RH12 1RL","51.060000","-0.330000"
"Howden Community Energy","Not Found","Not Found","A local community group focused on promoting energy efficiency and renewable energy within Howden, East Yorkshire.","Not Found (Community Group)","DN14 7AN","53.740000","-0.870000"
"Hunstanton Community Energy","Not Found","Not Found","A local community group focused on promoting energy efficiency and renewable energy within Hunstanton, Norfolk.","Not Found (Community Group)","PE36 5AB","52.930000","0.480000"
"Ilfracombe Community Energy","Not Found","Not Found","A local community group focused on promoting energy efficiency and renewable energy within Ilfracombe, Devon.","Not Found (Community Group)","EX34 9BQ","51.200000","-4.120000"
"Immingham Community Energy","Not Found","Not Found","A local community group focused on promoting energy efficiency and renewable energy within Immingham, Lincolnshire.","Not Found (Community Group)","DN40 1LB","53.600000","-0.200000"
"Ipswich Community Energy","Not Found","Not Found","A local community group focused on promoting energy efficiency and renewable energy within Ipswich.","Not Found (Community Group)","IP1 1AU","52.060000","1.150000"
"Isle of Wight Community Energy","https://www.wightcommunityenergy.org/","https://www.wightcommunityenergy.org/wp-content/uploads/2019/04/Wight-Community-Energy-Logo.png","A community benefit society delivering community-owned renewable energy, energy efficiency, and energy supply projects across the Isle of Wight.","Not Found (Operates across Isle of Wight)","PO30 1UD","50.680000","-1.300000"
"Keighley Community Energy","Not Found","Not Found","A local community group focused on promoting energy efficiency and renewable energy within Keighley, West Yorkshire.","Not Found (Community Group)","BD21 3QD","53.860000","-1.910000"
"Kenilworth Community Energy","Not Found","Not Found","A local community group focused on promoting energy efficiency and renewable energy within Kenilworth, Warwickshire.","Not Found (Community Group)","CV8 1HL","52.340000","-1.570000"
"Kidderminster Community Energy","Not Found","Not Found","A local community group focused on promoting energy efficiency and renewable energy within Kidderminster, Worcestershire.","Not Found (Community Group)","DY10 1BY","52.380000","-2.240000"
"King's Lynn Community Energy","Not Found","Not Found","A local community group focused on promoting energy efficiency and renewable energy within King's Lynn, Norfolk.","Not Found (Community Group)","PE30 1AB","52.750000","0.390000"
"Kirkham Community Energy","Not Found","Not Found","A local community group focused on promoting energy efficiency and renewable energy within Kirkham, Lancashire.","Not Found (Community Group)","PR4 2AZ","53.790000","-2.870000"
"Knutsford Community Energy","Not Found","Not Found","A local community group focused on promoting energy efficiency and renewable energy within Knutsford, Cheshire.","Not Found (Community Group)","WA16 6DD","53.300000","-2.370000"
"Lambeth Community Energy","Not Found","Not Found","A local community group focused on promoting energy efficiency and renewable energy within the London Borough of Lambeth.","Not Found (Community Group)","SW2 1AR","51.460000","-0.120000"
"Launceston Community Energy","Not Found","Not Found","A local community group focused on promoting energy efficiency and renewable energy within Launceston, Cornwall.","Not Found (Community Group)","PL15 7AX","50.640000","-4.360000"
"Leamington Spa Community Energy","Not Found","Not Found","A local community group focused on promoting energy efficiency and renewable energy within Leamington Spa, Warwickshire.","Not Found (Community Group)","CV31 3ER","52.290000","-1.530000"
"Ledbury Community Energy","Not Found","Not Found","A local community group focused on promoting energy efficiency and renewable energy within Ledbury, Herefordshire.","Not Found (Community Group)","HR8 1BN","52.030000","-2.420000"
"Leigh-on-Sea Community Energy","Not Found","Not Found","A local community group focused on promoting energy efficiency and renewable energy within Leigh-on-Sea, Essex.","Not Found (Community Group)","SS9 2EP","51.540000","0.670000"
"Leighton Buzzard Community Energy","Not Found","Not Found","A local community group focused on promoting energy efficiency and renewable energy within Leighton Buzzard, Bedfordshire.","Not Found (Community Group)","LU7 1ER","51.920000","-0.670000"
"Leominster Community Energy","Not Found","Not Found","A local community group focused on promoting energy efficiency and renewable energy within Leominster, Herefordshire.","Not Found (Community Group)","HR6 8EQ","52.210000","-2.730000"
"Leyland Community Energy","Not Found","Not Found","A local community group focused on promoting energy efficiency and renewable energy within Leyland, Lancashire.","Not Found (Community Group)","PR25 2LE","53.690000","-2.690000"
"Liskeard Community Energy","Not Found","Not Found","A local community group focused on promoting energy efficiency and renewable energy within Liskeard, Cornwall.","Not Found (Community Group)","PL14 3AB","50.450000","-4.470000"
"Littlehampton Community Energy","Not Found","Not Found","A local community group focused on promoting energy efficiency and renewable energy within Littlehampton, West Sussex.","Not Found (Community Group)","BN17 5EG","50.800000","-0.540000"
"Long Eaton Community Energy","Not Found","Not Found","A local community group focused on promoting energy efficiency and renewable energy within Long Eaton, Derbyshire.","Not Found (Community Group)","NG10 1FY","52.900000","-1.280000"
"Looe Community Energy","Not Found","Not Found","A local community group focused on promoting energy efficiency and renewable energy within Looe, Cornwall.","Not Found (Community Group)","PL13 1AX","50.350000","-4.460000"
"Loughton Community Energy","Not Found","Not Found","A local community group focused on promoting energy efficiency and renewable energy within Loughton, Essex.","Not Found (Community Group)","IG10 1DN","51.650000","0.050000"
"Ludlow Community Energy","Not Found","Not Found","A local community group focused on promoting energy efficiency and renewable energy within Ludlow, Shropshire.","Not Found (Community Group)","SY8 1AD","52.370000","-2.710000"
"Luton Community Energy","Not Found","Not Found","A local community group focused on promoting energy efficiency and renewable energy within Luton, Bedfordshire.","Not Found (Community Group)","LU1 2AA","51.880000","-0.410000"
"Lyme Regis Community Energy","Not Found","Not Found","A local community group focused on promoting energy efficiency and renewable energy within Lyme Regis, Dorset.","Not Found (Community Group)","DT7 3PU","50.720000","-2.940000"
"Lymington Community Energy","Not Found","Not Found","A local community group focused on promoting energy efficiency and renewable energy within Lymington, Hampshire.","Not Found (Community Group)","SO41 9AE","50.750000","-1.540000"
"Maghull Community Energy","Not Found","Not Found","A local community group focused on promoting energy efficiency and renewable energy within Maghull, Merseyside.","Not Found (Community Group)","L31 0EF","53.520000","-2.950000"
"Malmesbury Community Energy","Not Found","Not Found","A local community group focused on promoting energy efficiency and renewable energy within Malmesbury, Wiltshire.","Not Found (Community Group)","SN16 9AA","51.580000","-2.100000"
"Mansfield Community Energy","Not Found","Not Found","A local community group focused on promoting energy efficiency and renewable energy within Mansfield, Nottinghamshire.","Not Found (Community Group)","NG18 1HA","53.150000","-1.200000"
"March Community Energy","Not Found","Not Found","A local community group focused on promoting energy efficiency and renewable energy within March, Cambridgeshire.","Not Found (Community Group)","PE15 9JE","52.550000","0.080000"
"Margate Community Energy","Not Found","Not Found","A local community group focused on promoting energy efficiency and renewable energy within Margate, Kent.","Not Found (Community Group)","CT9 1DX","51.380000","1.380000"
"Market Drayton Community Energy","Not Found","Not Found","A local community group focused on promoting energy efficiency and renewable energy within Market Drayton, Shropshire.","Not Found (Community Group)","TF9 3AU","52.900000","-2.540000"
"Market Rasen Community Energy","Not Found","Not Found","A local community group focused on promoting energy efficiency and renewable energy within Market Rasen, Lincolnshire.","Not Found (Community Group)","LN8 3DZ","53.380000","-0.340000"
"Marlow Community Energy","Not Found","Not Found","A local community group focused on promoting energy efficiency and renewable energy within Marlow, Buckinghamshire.","Not Found (Community Group)","SL7 1AN","51.570000","-0.780000"
"Midsomer Norton Community Energy","Not Found","Not Found","A local community group focused on promoting energy efficiency and renewable energy within Midsomer Norton, Somerset.","Not Found (Community Group)","BA3 2HB","51.280000","-2.450000"
"New Forest Community Energy","Not Found","Not Found","A local community group focused on promoting energy efficiency and renewable energy within the New Forest area, Hampshire.","Not Found (Community Group)","SO42 7AA","50.830000","-1.570000"
"New Mills Community Energy","Not Found","Not Found","A local community group focused on promoting energy efficiency and renewable energy within New Mills, Derbyshire.","Not Found (Community Group)","SK22 4BE","53.370000","-2.080000"
"Newcastle-under-Lyme Community Energy","Not Found","Not Found","A local community group focused on promoting energy efficiency and renewable energy within Newcastle-under-Lyme, Staffordshire.","Not Found (Community Group)","ST5 1LA","53.000000","-2.230000"
"Newmarket Community Energy","Not Found","Not Found","A local community group focused on promoting energy efficiency and renewable energy within Newmarket, Suffolk.","Not Found (Community Group)","CB8 8AF","52.240000","0.400000"
"North Hykeham Community Energy","Not Found","Not Found","A local community group focused on promoting energy efficiency and renewable energy within North Hykeham, Lincolnshire.","Not Found (Community Group)","LN6 9BB","53.190000","-0.560000"
"North Walsham Community Energy","Not Found","Not Found","A local community group focused on promoting energy efficiency and renewable energy within North Walsham, Norfolk.","Not Found (Community Group)","NR28 9AS","52.830000","1.380000"
"Northampton Community Energy","Not Found","Not Found","A local community group focused on promoting energy efficiency and renewable energy within Northampton.","Not Found (Community Group)","NN1 2TA","52.240000","-0.890000"
"Northwich Community Energy","Not Found","Not Found","A local community group focused on promoting energy efficiency and renewable energy within Northwich, Cheshire.","Not Found (Community Group)","CW9 5EX","53.260000","-2.510000"
"Nuneaton Community Energy","Not Found","Not Found","A local community group focused on promoting energy efficiency and renewable energy within Nuneaton, Warwickshire.","Not Found (Community Group)","CV11 4AL","52.520000","-1.470000"
"Okehampton Community Energy","Not Found","Not Found","A local community group focused on promoting energy efficiency and renewable energy within Okehampton, Devon.","Not Found (Community Group)","EX20 1EW","50.740000","-4.000000"
"Oldbury Community Energy","Not Found","Not Found","A local community group focused on promoting energy efficiency and renewable energy within Oldbury, West Midlands.","Not Found (Community Group)","B69 4AJ","52.500000","-2.000000"
"Oldham Community Energy","Not Found","Not Found","A local community group focused on promoting energy efficiency and renewable energy within Oldham, Greater Manchester.","Not Found (Community Group)","OL1 1LF","53.550000","-2.110000"
"Ormskirk Community Energy","Not Found","Not Found","A local community group focused on promoting energy efficiency and renewable energy within Ormskirk, Lancashire.","Not Found (Community Group)","L39 2DD","53.570000","-2.890000"
"Otley Community Energy","Not Found","Not Found","A local community group focused on promoting energy efficiency and renewable energy within Otley, West Yorkshire.","Not Found (Community Group)","LS21 3HN","53.900000","-1.710000"
"Oundle Community Energy","Not Found","Not Found","A local community group focused on promoting energy efficiency and renewable energy within Oundle, Northamptonshire.","Not Found (Community Group)","PE8 4QQ","52.480000","-0.460000"
"Paignton Community Energy","Not Found","Not Found","A local community group focused on promoting energy efficiency and renewable energy within Paignton, Devon.","Not Found (Community Group)","TQ4 5AF","50.430000","-3.570000"
"Peacehaven Community Energy","Not Found","Not Found","A local community group focused on promoting energy efficiency and renewable energy within Peacehaven, East Sussex.","Not Found (Community Group)","BN10 8EE","50.780000","0.000000"
"Penryn Community Energy","Not Found","Not Found","A local community group focused on promoting energy efficiency and renewable energy within Penryn, Cornwall.","Not Found (Community Group)","TR10 8AP","50.180000","-5.100000"
"Pershore Community Energy","Not Found","Not Found","A local community group focused on promoting energy efficiency and renewable energy within Pershore, Worcestershire.","Not Found (Community Group)","WR10 1EY","52.110000","-2.080000"
"Plymouth Community Energy","Not Found","Not Found","A local community group focused on promoting energy efficiency and renewable energy within Plymouth, Devon.","Not Found (Community Group)","PL1 2AA","50.370000","-4.140000"
"Pontefract Community Energy","Not Found","Not Found","A local community group focused on promoting energy efficiency and renewable energy within Pontefract, West Yorkshire.","Not Found (Community Group)","WF8 1BA","53.690000","-1.300000"
"Poole Community Energy","Not Found","Not Found","A local community group focused on promoting energy efficiency and renewable energy within Poole, Dorset.","Not Found (Community Group)","BH15 1EE","50.710000","-1.980000"
"Portsmouth Community Energy","Not Found","Not Found","A local community group focused on promoting energy efficiency and renewable energy within Portsmouth, Hampshire.","Not Found (Community Group)","PO1 2JR","50.800000","-1.090000"
"Poulton-le-Fylde Community Energy","Not Found","Not Found","A local community group focused on promoting energy efficiency and renewable energy within Poulton-le-Fylde, Lancashire.","Not Found (Community Group)","FY6 7AW","53.860000","-2.990000"
"Ramsgate Community Energy","Not Found","Not Found","A local community group focused on promoting energy efficiency and renewable energy within Ramsgate, Kent.","Not Found (Community Group)","CT11 9AA","51.340000","1.420000"
"Rawtenstall Community Energy","Not Found","Not Found","A local community group focused on promoting energy efficiency and renewable energy within Rawtenstall, Lancashire.","Not Found (Community Group)","BB4 7ND","53.700000","-2.260000"
"Redditch Community Energy","Not Found","Not Found","A local community group focused on promoting energy efficiency and renewable energy within Redditch, Worcestershire.","Not Found (Community Group)","B97 4PP","52.300000","-1.940000"
"Reigate & Redhill Community Energy","Not Found","Not Found","A local community group focused on promoting energy efficiency and renewable energy within Reigate and Redhill, Surrey.","Not Found (Community Group)","RH2 0AA","51.230000","-0.180000"
"Richmond (North Yorkshire) Community Energy","Not Found","Not Found","A local community group focused on promoting energy efficiency and renewable energy within Richmond, North Yorkshire.","Not Found (Community Group)","DL10 4AR","54.400000","-1.730000"
"Richmond (London) Community Energy (via South West London Community Energy)","https://www.swlce.coop/","https://www.swlce.coop/wp-content/uploads/2019/04/SWLCE-Logo.png","Richmond is part of the area served by South West London Community Energy, a co-operative developing local renewable energy projects and promoting energy efficiency.","Not Found (Operates across SW London)","TW9 1HR","51.460000","-0.300000"
"Ripley Community Energy","Not Found","Not Found","A local community group focused on promoting energy efficiency and renewable energy within Ripley, Derbyshire.","Not Found (Community Group)","DE5 3GE","53.030000","-1.390000"
"Rochdale Community Energy","Not Found","Not Found","A local community group focused on promoting energy efficiency and renewable energy within Rochdale, Greater Manchester.","Not Found (Community Group)","OL16 1AA","53.610000","-2.150000"
"Rochester Community Energy","Not Found","Not Found","A local community group focused on promoting energy efficiency and renewable energy within Rochester, Kent.","Not Found (Community Group)","ME1 1JY","51.380000","0.500000"
"Romford Community Energy","Not Found","Not Found","A local community group focused on promoting energy efficiency and renewable energy within Romford, London.","Not Found (Community Group)","RM1 3DT","51.580000","0.180000"
"Romsey Community Energy","Not Found","Not Found","A local community group focused on promoting energy efficiency and renewable energy within Romsey, Hampshire.","Not Found (Community Group)","SO51 8YA","50.980000","-1.490000"
"Royston Community Energy","Not Found","Not Found","A local community group focused on promoting energy efficiency and renewable energy within Royston, Hertfordshire.","Not Found (Community Group)","SG8 5AS","52.070000","-0.020000"
"Rugby Community Energy","Not Found","Not Found","A local community group focused on promoting energy efficiency and renewable energy within Rugby, Warwickshire.","Not Found (Community Group)","CV21 2AH","52.370000","-1.270000"
"Runcorn Community Energy","Not Found","Not Found","A local community group focused on promoting energy efficiency and renewable energy within Runcorn, Cheshire.","Not Found (Community Group)","WA7 1BN","53.330000","-2.740000"
"Rutland Community Energy","Not Found","Not Found","A local community group focused on promoting energy efficiency and renewable energy within Rutland.","Not Found (Community Group)","LE15 6AP","52.670000","-0.490000"
"St Austell Community Energy","Not Found","Not Found","A local community group focused on promoting energy efficiency and renewable energy within St Austell, Cornwall.","Not Found (Community Group)","PL25 5AA","50.340000","-4.790000"
"St Helens Community Energy","Not Found","Not Found","A local community group focused on promoting energy efficiency and renewable energy within St Helens, Merseyside.","Not Found (Community Group)","WA10 1AU","53.450000","-2.730000"
"St Neots Community Energy","Not Found","Not Found","A local community group focused on promoting energy efficiency and renewable energy within St Neots, Cambridgeshire.","Not Found (Community Group)","PE19 1AE","52.220000","-0.260000"
"Sale Community Energy","Not Found","Not Found","A local community group focused on promoting energy efficiency and renewable energy within Sale, Greater Manchester.","Not Found (Community Group)","M33 7ZF","53.420000","-2.320000"
"Sandown Community Energy (Isle of Wight)","Not Found","Not Found","A local community group focused on promoting energy efficiency and renewable energy within Sandown, Isle of Wight.","Not Found (Community Group)","PO36 8DU","50.660000","-1.150000"
"Scarborough Community Energy","Not Found","Not Found","A local community group focused on promoting energy efficiency and renewable energy within Scarborough, North Yorkshire.","Not Found (Community Group)","YO11 1AA","54.280000","-0.400000"
"Scunthorpe Community Energy","Not Found","Not Found","A local community group focused on promoting energy efficiency and renewable energy within Scunthorpe, North Lincolnshire.","Not Found (Community Group)","DN15 6SY","53.590000","-0.650000"
"Sevenoaks Community Energy","Not Found","Not Found","A local community group focused on promoting energy efficiency and renewable energy within Sevenoaks, Kent.","Not Found (Community Group)","TN13 1BA","51.270000","0.180000"
"Sheffield Community Energy (General initiative)","Not Found","Not Found","An umbrella term for community energy activities within Sheffield, which includes groups like Heeley Energy.","Not Found (Umbrella/General)","S1 2HH","53.380000","-1.470000"
"Shepton Mallet Community Energy","Not Found","Not Found","A local community group focused on promoting energy efficiency and renewable energy within Shepton Mallet, Somerset.","Not Found (Community Group)","BA4 5EA","51.190000","-2.550000"
"Sherborne Community Energy","Not Found","Not Found","A local community group focused on promoting energy efficiency and renewable energy within Sherborne, Dorset.","Not Found (Community Group)","DT9 3LF","50.940000","-2.170000"
"Shipley Community Energy","Not Found","Not Found","A local community group focused on promoting energy efficiency and renewable energy within Shipley, West Yorkshire.","Not Found (Community Group)","BD18 3QQ","53.830000","-1.780000"
"Shrewsbury Community Energy","Not Found","Not Found","A local community group focused on promoting energy efficiency and renewable energy within Shrewsbury, Shropshire.","Not Found (Community Group)","SY1 1HL","52.710000","-2.750000"
"Sittingbourne Community Energy","Not Found","Not Found","A local community group focused on promoting energy efficiency and renewable energy within Sittingbourne, Kent.","Not Found (Community Group)","ME10 3EF","51.340000","0.730000"
"Skegness Community Energy","Not Found","Not Found","A local community group focused on promoting energy efficiency and renewable energy within Skegness, Lincolnshire.","Not Found (Community Group)","PE25 3EA","53.140000","0.340000"
"Skipton Community Energy","Not Found","Not Found","A local community group focused on promoting energy efficiency and renewable energy within Skipton, North Yorkshire.","Not Found (Community Group)","BD23 1DN","53.960000","-2.020000"
"Slough Community Energy","Not Found","Not Found","A local community group focused on promoting energy efficiency and renewable energy within Slough, Berkshire.","Not Found (Community Group)","SL1 1DA","51.510000","-0.590000"
"Solihull Community Energy","Not Found","Not Found","A local community group focused on promoting energy efficiency and renewable energy within Solihull, West Midlands.","Not Found (Community Group)","B91 3QB","52.410000","-1.780000"
"South Shields Community Energy","Not Found","Not Found","A local community group focused on promoting energy efficiency and renewable energy within South Shields, Tyne and Wear.","Not Found (Community Group)","NE33 1AA","55.000000","-1.430000"
"South Woodham Ferrers Community Energy","Not Found","Not Found","A local community group focused on promoting energy efficiency and renewable energy within South Woodham Ferrers, Essex.","Not Found (Community Group)","CM3 5WP","51.620000","0.620000"
"Spalding Community Energy","Not Found","Not Found","A local community group focused on promoting energy efficiency and renewable energy within Spalding, Lincolnshire.","Not Found (Community Group)","PE11 1AT","52.790000","-0.150000"
"Spilsby Community Energy","Not Found","Not Found","A local community group focused on promoting energy efficiency and renewable energy within Spilsby, Lincolnshire.","Not Found (Community Group)","PE23 5JN","53.170000","0.090000"
"Stafford Community Energy","Not Found","Not Found","A local community group focused on promoting energy efficiency and renewable energy within Stafford, Staffordshire.","Not Found (Community Group)","ST16 2BD","52.800000","-2.120000"
"Staines-upon-Thames Community Energy","Not Found","Not Found","A local community group focused on promoting energy efficiency and renewable energy within Staines-upon-Thames, Surrey.","Not Found (Community Group)","TW18 4AH","51.430000","-0.510000"
"Stamford Community Energy","Not Found","Not Found","A local community group focused on promoting energy efficiency and renewable energy within Stamford, Lincolnshire.","Not Found (Community Group)","PE9 2AQ","52.650000","-0.480000"
"Stevenage Community Energy","Not Found","Not Found","A local community group focused on promoting energy efficiency and renewable energy within Stevenage, Hertfordshire.","Not Found (Community Group)","SG1 1BP","51.900000","-0.200000"
"Stockton-on-Tees Community Energy","Not Found","Not Found","A local community group focused on promoting energy efficiency and renewable energy within Stockton-on-Tees, County Durham.","Not Found (Community Group)","TS18 1DY","54.560000","-1.310000"
"Stoke-on-Trent Community Energy","Not Found","Not Found","A local community group focused on promoting energy efficiency and renewable energy within Stoke-on-Trent, Staffordshire.","Not Found (Community Group)","ST4 1HH","53.000000","-2.180000"
"Stowmarket Community Energy","Not Found","Not Found","A local community group focused on promoting energy efficiency and renewable energy within Stowmarket, Suffolk.","Not Found (Community Group)","IP14 1EP","52.180000","1.000000"
"Stratford-upon-Avon Community Energy","Not Found","Not Found","A local community group focused on promoting energy efficiency and renewable energy within Stratford-upon-Avon, Warwickshire.","Not Found (Community Group)","CV37 6AU","52.190000","-1.700000"
"Sudbury Community Energy","Not Found","Not Found","A local community group focused on promoting energy efficiency and renewable energy within Sudbury, Suffolk.","Not Found (Community Group)","CO10 2EA","52.030000","0.730000"
"Sunderland Community Energy","Not Found","Not Found","A local community group focused on promoting energy efficiency and renewable energy within Sunderland, Tyne and Wear.","Not Found (Community Group)","SR1 3AA","54.900000","-1.380000"
"Sutton Coldfield Community Energy","Not Found","Not Found","A local community group focused on promoting energy efficiency and renewable energy within Sutton Coldfield, West Midlands.","Not Found (Community Group)","B72 1QU","52.560000","-1.820000"
"Sutton-in-Ashfield Community Energy","Not Found","Not Found","A local community group focused on promoting energy efficiency and renewable energy within Sutton-in-Ashfield, Nottinghamshire.","Not Found (Community Group)","NG17 1DE","53.110000","-1.260000"
"Swaffham Community Energy","Not Found","Not Found","A local community group focused on promoting energy efficiency and renewable energy within Swaffham, Norfolk.","Not Found (Community Group)","PE37 7AB","52.660000","0.480000"
"Swanley Community Energy","Not Found","Not Found","A local community group focused on promoting energy efficiency and renewable energy within Swanley, Kent.","Not Found (Community Group)","BR8 7BU","51.370000","0.160000"
"Tamworth Community Energy","Not Found","Not Found","A local community group focused on promoting energy efficiency and renewable energy within Tamworth, Staffordshire.","Not Found (Community Group)","B79 7DA","52.630000","-1.700000"
"Teignmouth Community Energy","Not Found","Not Found","A local community group focused on promoting energy efficiency and renewable energy within Teignmouth, Devon.","Not Found (Community Group)","TQ14 8BT","50.550000","-3.490000"
"Tiverton Community Energy","Not Found","Not Found","A local community group focused on promoting energy efficiency and renewable energy within Tiverton, Devon.","Not Found (Community Group)","EX16 6AB","50.890000","-3.500000"
"Torbay Council (Energy Efficiency Programs)","https://www.torbay.gov.uk/housing/advice-for-landlords/energy-efficiency/energy-grants/","Not Found (Council Logo)","Torbay Council promotes energy efficiency and offers advice and support for residents to reduce energy bills and improve home energy efficiency, often collaborating with regional bodies like Exeter Community Energy.","Town Hall, Castle Circus, Torquay","TQ1 3DR","50.460000","-3.520000"
"Trowbridge Environmental Community","https://www.wiltshireclimatealliance.org.uk/member-groups/%5B%22bath%22%2C%22trowbridge%22%2C%22bradford-on-avon%22%2C%22corsham%22%2C%22lacock%22%5D","Not Found (Wiltshire Climate Alliance logo)","A local group focused on making Trowbridge a better place for current and future generations, including initiatives related to environmental sustainability and energy.","Not Found (Community Group)","BA14 8HD","51.320000","-2.210000"
"Truro Community Energy (via Community Energy Plus)","https://cep.org.uk/","https://cep.org.uk/wp-content/uploads/2021/04/CEP-Logo.png","While no specific 'Truro Community Energy' group found, Truro is covered by Community Energy Plus, Cornwall's energy advice charity providing free advice on energy efficiency and low carbon solutions to householders and communities.","Suite C, Milestone House, Glenthorne Court, Truro","TR4 9NY","50.270000","-5.070000"
"Tunbridge Wells Borough Council (Collective Energy Switch)","https://bigcommunityswitch.co.uk/tunbridge-wells/register","Not Found (Council/Big Community Switch logo)","Tunbridge Wells Borough Council supports a collective energy switching scheme to help residents find better deals and switch to renewable tariffs.","Not Found (Council Initiative)","TN1 1SA","51.130000","0.260000"
"Tyldesley Community Energy","Not Found","Not Found","A local community group focused on promoting energy efficiency and renewable energy within Tyldesley, Greater Manchester. Information is scarce.","Not Found (Community Group)","M29 8DD","53.520000","-2.450000"
"Uckfield Community Energy (generic search result for solar installers)","Not Found (Clear Sky Energy is commercial)","Not Found","No specific 'Uckfield Community Energy' group found. Local efforts may be via broader environmental groups or local council initiatives.","Not Found (No direct community group found)","TN22 1AE","50.970000","0.090000"
"The Globe Foundation (Uttoxeter)","https://www.centrica.com/stories/2025/empowering-a-community-through-retrofit-innovation-at-the-globe-foundation/","Not Found on website","A grassroots sustainability project in Uttoxeter, bringing energy education to life through a retrofitted eco-centre and workshops on energy efficiency.","Not Found (Community Organisation)","ST14 8AB","53.080000","-1.860000"
"Wakefield Council (Saving Energy Initiatives)","https://www.wakefield.gov.uk/housing/saving-energy","Not Found (Council Logo)","Wakefield Council provides advice, support, and grants to residents for saving energy, improving home energy efficiency, and tackling fuel poverty.","Not Found (Council Initiative)","WF1 2QW","53.680000","-1.500000"
"Wallasey Community Energy (via SP Energy Networks support)","https://www.spenergynetworks.co.uk/pages/community_energy.aspx","Not Found (SP Energy Networks logo)","While no direct 'Wallasey Community Energy' group found, Wallasey is within SP Energy Networks' area which has a community energy support strategy.","Not Found (Regional Support/Initiative)","CH45 4HL","53.420000","-3.040000"
"Walsall Energy Action Project (WEAP)","https://weap.walsall.gov.uk/community-energy-hubs","Not Found on website","WEAP runs Community Energy Hubs in Walsall, offering energy efficiency advice, climate change awareness, and practical support to residents.","Not Found (Council-linked project with multiple hubs)","WS1 1BL","52.580000","-1.980000"
"Waltham Abbey Community Energy","Not Found","Not Found","A local community group focused on promoting energy efficiency and renewable energy within Waltham Abbey, Essex. Information is scarce.","Not Found (Community Group)","EN9 1BB","51.680000","0.010000"
"Walton-on-Thames Community Energy (via Surrey Community Energy)","https://www.surreycc.gov.uk/community/climate-change/community-groups-and-climate-change/projects","Not Found (Surrey CC logo)","Walton-on-Thames is part of the broader Surrey Community Energy initiatives, exploring local renewable energy projects and energy efficiency.","Not Found (Community Initiative)","KT12 1AS","51.390000","-0.420000"
"Ware Community Energy (via Community Energy Pathways support)","https://communityenergypathways.org.uk/","https://communityenergypathways.org.uk/wp-content/uploads/2023/05/cropped-CEP-Header-Logo-1.png","While no specific 'Ware Community Energy' group found, Ware is within the region supported by Community Energy Pathways, a social enterprise accelerating community energy.","Not Found (Regional Support/Initiative)","SG12 9HL","51.810000","-0.040000"
"Sustainable Warminster (Energy Advice Tea Party)","https://warminster-tc.gov.uk/events/warm-and-well-energy-advice/","Not Found (Town Council logo)","Sustainable Warminster hosts events like Energy Advice Tea Parties to provide practical guidance and tips to residents on reducing energy costs and improving home energy efficiency.","Not Found (Community Initiative)","BA12 9AE","51.210000","-2.180000"
"Washington Community Energy","Not Found","Not Found","A local community group focused on promoting energy efficiency and renewable energy within Washington, Tyne and Wear. Information is scarce.","Not Found (Community Group)","NE37 1JR","54.900000","-1.530000"
"Wednesbury Community Energy","Not Found","Not Found","A local community group focused on promoting energy efficiency and renewable energy within Wednesbury, West Midlands. Information is scarce.","Not Found (Community Group)","WS10 7DL","52.560000","-2.030000"
"Wellingborough Homes (Energy Efficiency Improvements)","https://www.northantstelegraph.co.uk/news/people/wellingborough-homes-receive-ps3-million-energy-efficiency-improvements-5159224","Not Found (Housing Association logo)","Greatwell Homes, a housing association in Wellingborough, has undertaken significant energy efficiency improvements to homes in the area to reduce bills and carbon emissions.","Not Found (Housing Association Project)","NN8 1DG","52.290000","-0.690000"
"Welwyn Garden City Community Energy (via Community Energy Plus - Registered office)","https://open.endole.co.uk/insight/brand/68417-community-energy-plus","Not Found (Community Energy Plus logo)","Community Energy Plus, an energy advice charity for Cornwall, has its registered office in Welwyn Garden City, though their primary operations are elsewhere. No specific local group found.","Not Found (Registered Office Location)","AL8 6DA","51.800000","-0.180000"
"West Bridgford Community Energy","Not Found","Not Found","A local community group focused on promoting energy efficiency and renewable energy within West Bridgford, Nottinghamshire. Information is scarce.","Not Found (Community Group)","NG2 6AT","52.930000","-1.130000"
"West Kirby Concourse (Clean Energy Upgrade)","https://www.birkenhead.news/west-kirby-concourse-among-wirral-sites-set-for-clean-power-upgrade/","Not Found (Local authority/news logo)","West Kirby Concourse is receiving a clean energy upgrade as part of a larger funding initiative for public buildings in the Liverpool City Region.","Not Found (Public Building Project)","CH48 4HX","53.370000","-3.180000"
"Westhoughton Community Energy","Not Found","Not Found","A local community group focused on promoting energy efficiency and renewable energy within Westhoughton, Greater Manchester. Information is scarce.","Not Found (Community Group)","BL5 3AB","53.540000","-2.530000"
"Weston-super-Mare Community Energy","Not Found","Not Found","A local community group focused on promoting energy efficiency and renewable energy within Weston-super-Mare, Somerset. Information is scarce.","Not Found (Community Group)","BS23 1AH","51.340000","-2.980000"
"Weymouth Community Energy","Not Found","Not Found","A local community group focused on promoting energy efficiency and renewable energy within Weymouth, Dorset. Information is scarce.","Not Found (Community Group)","DT4 8AD","50.610000","-2.460000"
"Whitby Community Energy","Not Found","Not Found","A local community group focused on promoting energy efficiency and renewable energy within Whitby, North Yorkshire. Information is scarce.","Not Found (Community Group)","YO21 3DN","54.490000","-0.610000"
"Whitehaven Community Energy","Not Found","Not Found","A local community group focused on promoting energy efficiency and renewable energy within Whitehaven, Cumbria. Information is scarce.","Not Found (Community Group)","CA28 7DP","54.550000","-3.590000"
"Whitley Bay Community Energy","Not Found","Not Found","A local community group focused on promoting energy efficiency and renewable energy within Whitley Bay, Tyne and Wear. Information is scarce.","Not Found (Community Group)","NE26 2DP","55.040000","-1.450000"
"Whitchurch (Hampshire) Community Energy","Not Found","Not Found","A local community group focused on promoting energy efficiency and renewable energy within Whitchurch, Hampshire. Information is scarce.","Not Found (Community Group)","RG28 7AJ","51.240000","-1.400000"
"Whitchurch (Shropshire) Community Energy","Not Found","Not Found","A local community group focused on promoting energy efficiency and renewable energy within Whitchurch, Shropshire. Information is scarce.","Not Found (Community Group)","SY13 1BA","52.950000","-2.760000"
"Whitstable Community Energy","Not Found","Not Found","A local community group focused on promoting energy efficiency and renewable energy within Whitstable, Kent. Information is scarce.","Not Found (Community Group)","CT5 1AA","51.350000","1.020000"
"Widnes Community Energy","Not Found","Not Found","A local community group focused on promoting energy efficiency and renewable energy within Widnes, Cheshire. Information is scarce.","Not Found (Community Group)","WA8 6DL","53.360000","-2.720000"
"Wigan Community Energy","Not Found","Not Found","A local community group focused on promoting energy efficiency and renewable energy within Wigan, Greater Manchester. Information is scarce.","Not Found (Community Group)","WN1 1AB","53.550000","-2.630000"
"Wigston Community Energy","Not Found","Not Found","A local community group focused on promoting energy efficiency and renewable energy within Wigston, Leicestershire. Information is scarce.","Not Found (Community Group)","LE18 1DP","52.590000","-1.110000"
"Willenhall Community Energy","Not Found","Not Found","A local community group focused on promoting energy efficiency and renewable energy within Willenhall, West Midlands. Information is scarce.","Not Found (Community Group)","WV13 2AA","52.580000","-2.060000"
"Wimbledon Community Energy","Not Found","Not Found","A local community group focused on promoting energy efficiency and renewable energy within Wimbledon, London. Information is scarce.","Not Found (Community Group)","SW19 7NA","51.420000","-0.210000"
"Winchester Community Energy","Not Found","Not Found","A local community group focused on promoting energy efficiency and renewable energy within Winchester, Hampshire. Information is scarce.","Not Found (Community Group)","SO23 9BL","51.060000","-1.320000"
"Windsor Community Energy","Not Found","Not Found","A local community group focused on promoting energy efficiency and renewable energy within Windsor, Berkshire. Information is scarce.","Not Found (Community Group)","SL4 1PE","51.480000","-0.600000"
"Winsford Community Energy","Not Found","Not Found","A local community group focused on promoting energy efficiency and renewable energy within Winsford, Cheshire. Information is scarce.","Not Found (Community Group)","CW7 1AS","53.180000","-2.510000"
"Wirral Community Energy (general term for initiatives on Wirral)","Not Found","Not Found","An umbrella term for various community energy initiatives and projects taking place across the Wirral peninsula.","Not Found (General/Umbrella Term)","CH41 6AA","53.390000","-3.030000"
"Witham Community Energy","Not Found","Not Found","A local community group focused on promoting energy efficiency and renewable energy within Witham, Essex. Information is scarce.","Not Found (Community Group)","CM8 2HD","51.800000","0.630000"
"Witney Community Energy","Not Found","Not Found","A local community group focused on promoting energy efficiency and renewable energy within Witney, Oxfordshire. Information is scarce.","Not Found (Community Group)","OX28 6EY","51.780000","-1.480000"
"Wivenhoe Community Energy","Not Found","Not Found","A local community group focused on promoting energy efficiency and renewable energy within Wivenhoe, Essex. Information is scarce.","Not Found (Community Group)","CO7 9BB","51.850000","0.960000"
"Wolverhampton Community Energy","Not Found","Not Found","A local community group focused on promoting energy efficiency and renewable energy within Wolverhampton, West Midlands. Information is scarce.","Not Found (Community Group)","WV1 1RX","52.590000","-2.120000"
"Woodford Green Community Energy","Not Found","Not Found","A local community group focused on promoting energy efficiency and renewable energy within Woodford Green, London. Information is scarce.","Not Found (Community Group)","IG8 0PS","51.600000","0.040000"
"Worcester Park Community Energy","Not Found","Not Found","A local community group focused on promoting energy efficiency and renewable energy within Worcester Park, London. Information is scarce.","Not Found (Community Group)","KT4 7NX","51.370000","-0.240000"
"Worksop Community Energy","Not Found","Not Found","A local community group focused on promoting energy efficiency and renewable energy within Worksop, Nottinghamshire. Information is scarce.","Not Found (Community Group)","S80 1EY","53.300000","-1.130000"
"Wymondham Community Energy","Not Found","Not Found","A local community group focused on promoting energy efficiency and renewable energy within Wymondham, Norfolk. Information is scarce.","Not Found (Community Group)","NR18 0AL","52.570000","1.110000"
"Yeovil Community Energy","Not Found","Not Found","A local community group focused on promoting energy efficiency and renewable energy within Yeovil, Somerset. Information is scarce.","Not Found (Community Group)","BA20 1AA","50.940000","-2.640000"




